OBJECT_NAME,OBJECT_ID,EPOCH,MEAN_MOTION,ECCENTRICITY,INCLINATION,RA_OF_ASC_NODE,ARG_OF_PERICENTER,MEAN_ANOMALY,EPHEMERIS_TYPE,CLASSIFICATION_TYPE,NORAD_CAT_ID,ELEMENT_SET_NO,REV_AT_EPOCH,BSTAR,MEAN_MOTION_DOT,MEAN_MOTION_DDOT
STARLINK-30883,2023-171Y,2026-06-28T19:51:02.042208,15.27567776,.0001599,43.0037,17.3990,263.1162,96.9508,0,U,58252,999,14673,.77146789E-4,.186E-4,0
ZHONGXING-6E,2023-172A,2026-06-28T01:01:53.114304,1.00274403,.00026384,0.0333,266.3258,187.3561,313.4400,0,U,58253,999,976,0,-.35E-5,0
ORBASTRO-PC-1,2023-174C,2026-06-28T22:53:42.811872,15.49298520,.00073644,97.3785,266.2512,126.8658,233.3270,0,U,58258,999,14729,.46337467E-3,.25313E-3,0
LEMUR-2-BASS,2023-174D,2026-06-28T18:02:30.305760,15.43474491,.00080846,97.3855,264.6275,127.4266,232.7719,0,U,58259,999,14714,.37889972E-3,.16912E-3,0
PLATERO,2023-174G,2026-06-28T19:37:01.963776,15.63969179,.00045051,97.3942,278.4019,74.7447,285.4310,0,U,58262,999,14800,.36466982E-3,.34315E-3,0
BRO-11,2023-174J,2026-06-28T21:48:07.333344,15.27461383,.00110508,97.3909,256.6450,158.5065,201.6640,0,U,58264,999,14654,.20999729E-3,.5578E-4,0
FLOCK 4Q-16,2023-174R,2026-06-28T17:28:02.053056,15.49790258,.00070304,97.3844,268.1057,124.6023,235.5892,0,U,58271,999,14736,.32717066E-3,.18138E-3,0
FLOCK 4Q-11,2023-174T,2026-06-28T16:55:57.553536,15.50144449,.00070712,97.3881,268.6993,120.9452,239.2495,0,U,58273,999,14737,.39211943E-3,.22042E-3,0
GENMAT-1,2023-174W,2026-06-28T17:24:38.683872,15.34846953,.00076957,97.3680,257.5384,135.3973,224.7891,0,U,58276,999,14674,.25950686E-3,.8697E-4,0
FLOCK 4Q-28,2023-174AA,2026-06-28T19:40:31.761984,15.55811020,.00062166,97.3892,271.4022,113.5658,246.6250,0,U,58280,999,14755,.36119525E-3,.24902E-3,0
AETHER-1,2023-174AB,2026-06-28T22:57:31.671648,15.91842478,.00061171,97.3779,275.2512,246.0531,114.0103,0,U,58281,999,14782,.11127047E-2,.363109E-2,.52010339E-4
FLOCK 4Q-27,2023-174AC,2026-06-28T18:12:53.887392,15.55793999,.00055124,97.3824,270.7588,115.1138,245.0689,0,U,58282,999,14755,.39109714E-3,.26957E-3,0
PICO-01B009,2023-174AH,2026-06-28T22:10:01.694208,15.86497156,.00029732,97.3761,277.6775,213.7286,146.3796,0,U,58287,999,14802,.80976134E-3,.207269E-2,0
ICEYE-X31,2023-174AJ,2026-06-28T22:33:25.790976,15.34681427,.00011527,97.3786,255.6789,249.4414,110.6705,0,U,58288,999,14655,.51563342E-3,.17271E-3,0
FALCONSAT-10,2023-174AM,2026-06-28T22:52:57.343008,15.27781044,.00095571,97.3807,255.8829,139.0008,221.1952,0,U,58291,999,14656,.17765977E-3,.4752E-4,0
ICEYE-X34,2023-174AQ,2026-06-28T19:18:53.451648,15.66904060,.00030958,97.3885,271.5769,166.6552,193.4791,0,U,58294,999,14756,.74299269E-3,.79098E-3,0
SPACEVAN-001,2023-174AR,2026-06-28T22:52:10.755264,15.58452523,.00081339,97.4010,277.4684,42.4145,317.7739,0,U,58295,999,14797,.19448472E-3,.14735E-3,0
PELICAN-1,2023-174AS,2026-06-28T19:51:54.791136,15.72548565,.00037125,97.3983,280.9058,160.1223,200.0186,0,U,58296,999,14799,.74584126E-4,.9823E-4,0
UMBRA-07,2023-174AT,2026-06-28T16:59:57.844032,15.09338512,.00037456,97.3788,235.0347,61.3763,298.7843,0,U,58297,999,14515,.62450333E-3,.9912E-4,0
SPIP,2023-174AU,2026-06-28T22:36:57.030336,15.27751605,.00105377,97.3847,256.3404,138.5153,221.6888,0,U,58298,999,14657,.17047697E-3,.4554E-4,0
AETHER-2,2023-174AV,2026-06-28T19:19:23.012544,15.34689570,.00086508,97.3907,263.0907,106.7268,253.4925,0,U,58299,999,14701,.17320616E-3,.5748E-4,0
ION SCV-013,2023-174AW,2026-06-28T23:56:07.551168,15.05145995,.00993575,97.6148,234.9217,155.1124,205.4943,0,U,58300,999,14331,.11859318E-3,.1817E-4,0
LEO EXPRESS 1,2023-174AX,2026-06-28T17:03:27.014976,15.35642540,.00735915,97.5197,265.4275,81.3860,279.5712,0,U,58301,999,14666,.366457E-3,.13813E-3,0
ICEYE-X35,2023-174AY,2026-06-28T23:14:14.850816,15.53548003,.00093109,97.3799,264.8725,157.0263,203.1409,0,U,58302,999,14717,.81882882E-3,.5233E-3,0
FLOCK 4Q-29,2023-174BA,2026-06-28T18:51:49.900608,15.58186531,.00040484,97.3939,271.9509,113.0335,247.1348,0,U,58304,999,14756,.13217359E-2,.100705E-2,0
FLOCK 4Q-7,2023-174BQ,2026-06-28T17:12:19.790208,15.56300119,.00059954,97.3922,271.6019,102.0275,258.1652,0,U,58318,999,14754,.41574199E-3,.29214E-3,0
FLOCK 4Q-2,2023-174BS,2026-06-28T22:45:28.759392,15.50139650,.00063028,97.3844,268.6694,100.8313,259.3648,0,U,58320,999,14742,.47039727E-3,.26466E-3,0
PROTOMETHEE,2023-174BT,2026-06-29T02:28:02.346816,15.31595454,.0009214,97.3776,258.4590,120.0337,240.1820,0,U,58321,999,14679,.28316E-3,.8573E-4,0
FLOCK 4Q-9,2023-174BU,2026-06-28T21:43:32.658240,15.50527361,.00072737,97.3870,268.7192,103.1385,257.0679,0,U,58322,999,14740,.48575559E-3,.27722E-3,0
OBSERVER-1A,2023-174BV,2026-06-28T23:55:37.021728,15.38891762,.00094491,97.3949,263.8711,113.3122,246.9119,0,U,58323,999,14702,.26807082E-3,.10248E-3,0
PICO-01A003,2023-174BY,2026-06-28T21:52:17.031072,15.46569046,.00067634,97.3803,265.4692,119.0041,241.1887,0,U,58326,999,14722,.43353544E-3,.2152E-3,0
FLOCK 4Q-4,2023-174BZ,2026-06-28T21:42:31.270176,15.49175077,.00070913,97.3830,267.8783,121.5688,238.6256,0,U,58327,999,14737,.41151071E-3,.22362E-3,0
FLOCK 4Q-13,2023-174CA,2026-06-28T20:33:35.679744,15.52174545,.00071967,97.4012,271.0158,106.4008,253.8036,0,U,58328,999,14748,.36282624E-3,.21916E-3,0
OUTPOST MISSION 2,2023-174CG,2026-06-28T23:37:50.016288,15.58589119,.00051427,97.3974,273.3959,86.2902,273.8942,0,U,58334,999,14766,.53376581E-3,.4093E-3,0
LEMUR-2-JK0903EM1407,2023-174CJ,2026-06-28T19:32:21.130080,15.52268155,.00048984,97.3933,270.6153,85.8233,274.3580,0,U,58336,999,14753,.40788795E-3,.24728E-3,0
LEMUR-2-MJR092620,2023-174CN,2026-06-28T19:35:30.738336,15.45295461,.00067197,97.3983,270.0618,82.4961,277.7051,0,U,58340,999,14744,.38823905E-3,.18432E-3,0
O3B MPOWER F5,2023-175A,2026-06-28T16:51:20.172384,5.00116048,.00053143,0.0503,10.6134,105.2322,244.2085,0,U,58346,999,5000,0,-.21E-6,0
O3B MPOWER F6,2023-175B,2026-06-28T14:28:10.346592,5.00115990,.00044803,0.0530,2.3597,91.7098,265.9810,0,U,58347,999,4891,0,-.21E-6,0
HAIYANG-3A,2023-176A,2026-06-28T22:59:51.065952,14.34125932,.00092682,98.5465,257.7948,357.0456,3.0673,0,U,58349,999,13700,.46925474E-4,.88E-6,0
STARLINK-30907,2023-177B,2026-06-28T19:17:05.606304,15.27574097,.00013575,43.0024,82.8453,261.2035,98.8663,0,U,58352,999,14531,.70669189E-4,.1683E-4,0
STARLINK-30896,2023-177C,2026-06-28T18:39:49.846464,15.27582597,.00010561,43.0012,301.4415,260.0831,99.9902,0,U,58353,999,14682,.40929338E-4,.865E-5,0
STARLINK-30832,2023-177D,2026-06-28T19:06:12.030912,15.27579852,.00014579,43.0037,83.6434,257.0655,103.0034,0,U,58354,999,14516,.53581008E-4,.1212E-4,0
STARLINK-30903,2023-177E,2026-06-28T19:20:47.390784,15.27579704,.00012371,43.0001,82.8727,247.7625,112.3096,0,U,58355,999,14522,.71037208E-4,.1693E-4,0
STARLINK-30905,2023-177F,2026-06-28T17:52:10.491168,15.27580062,.00005157,42.9978,83.2380,208.9455,151.1368,0,U,58356,999,14515,.43516733E-4,.936E-5,0
STARLINK-30842,2023-177G,2026-06-28T23:18:45.458208,15.28275302,.00042864,43.0099,68.6490,212.0771,147.9821,0,U,58357,999,14540,.99945831E-3,.27941E-3,0
STARLINK-30858,2023-177H,2026-06-28T23:54:01.891008,15.27554121,.00012006,43.0063,81.7231,270.4974,89.5740,0,U,58358,999,14526,-.54054968E-4,-.1748E-4,0
STARLINK-30878,2023-177J,2026-06-28T18:02:34.778688,15.27575322,.00013346,43.0001,86.7204,260.2544,99.8157,0,U,58359,999,14517,.72332467E-4,.1729E-4,0
STARLINK-30897,2023-177K,2026-06-28T20:02:34.211616,15.27570185,.00016532,43.0052,97.5508,273.1086,86.9576,0,U,58360,999,14505,.69189225E-4,.1642E-4,0
STARLINK-30885,2023-177L,2026-06-28T19:31:53.811264,15.27566952,.00018816,42.9993,82.9298,264.2473,95.8164,0,U,58361,999,14523,.11861371E-3,.3002E-4,0
STARLINK-30890,2023-177M,2026-06-28T18:03:17.831808,15.27565296,.00010361,42.9983,83.3285,291.3989,68.6752,0,U,58362,999,14516,.80993924E-4,.1966E-4,0
STARLINK-30909,2023-177N,2026-06-28T22:51:18.878112,15.27574473,.00015407,43.0037,82.2494,266.8150,93.2526,0,U,58363,999,14524,.4950995E-4,.11E-4,0
STARLINK-30904,2023-177P,2026-06-28T18:51:21.357504,15.09551244,.00082097,42.9991,101.4536,168.7912,191.3117,0,U,58364,999,14500,.14114511E-2,.22916E-3,0
STARLINK-30918,2023-177Q,2026-06-28T01:07:56.094528,15.27556363,.00021382,43.0045,87.4965,278.7089,81.3521,0,U,58365,999,14509,-.57399626E-4,-.1841E-4,0
STARLINK-30892,2023-177R,2026-06-28T10:23:36.614688,15.27576791,.00016478,43.0058,85.2273,267.8186,92.2477,0,U,58366,999,14517,.94325267E-4,.2334E-4,0
STARLINK-30891,2023-177S,2026-06-28T18:34:45.048864,15.27564267,.00011374,43.0029,83.4913,271.8045,88.2677,0,U,58367,999,14515,.78041825E-4,.1885E-4,0
STARLINK-30889,2023-177T,2026-06-28T18:29:11.756544,15.27575539,.00005048,42.9987,83.4612,314.8894,45.1917,0,U,58368,999,14521,.37298012E-4,.765E-5,0
STARLINK-30870,2023-177U,2026-06-28T18:40:17.595552,15.27571019,.00009364,43.0017,83.5100,213.5751,146.5041,0,U,58369,999,14521,.85638228E-4,.2095E-4,0
STARLINK-30888,2023-177V,2026-06-28T23:55:52.209120,15.27568216,.00012798,43.0023,81.7139,260.7083,99.3624,0,U,58370,999,14526,.578955E-6,-.246E-5,0
STARLINK-30859,2023-177W,2026-06-28T18:49:31.587168,15.27578894,.00018849,42.9998,83.5278,284.5486,75.5156,0,U,58371,999,14522,.10353648E-3,.2588E-4,0
STARLINK-30884,2023-177X,2026-06-28T18:51:25.299072,15.27595276,.00009311,43.0017,83.5680,276.2962,83.7783,0,U,58372,999,14521,.39555445E-3,.10643E-3,0
STARLINK-30852,2023-177Y,2026-06-28T17:48:29.140416,15.27566966,.00014889,43.0015,83.2165,249.9197,110.1495,0,U,58373,999,14521,.12822623E-3,.3267E-4,0
STARLINK-30911,2023-178A,2026-06-28T08:29:24.736992,15.34402169,.00010993,53.1591,204.9891,79.6561,280.4566,0,U,58374,999,14685,-.29693601E-4,-.1379E-4,0
STARLINK-30894,2023-178B,2026-06-28T18:46:41.699712,15.34406756,.0001103,53.1597,203.4024,97.7243,262.3885,0,U,58375,999,14685,.9966571E-4,.2993E-4,0
STARLINK-30910,2023-178C,2026-06-28T08:47:35.828160,15.34361044,.00013482,53.1580,205.0745,99.9653,260.1501,0,U,58376,999,14686,.23739372E-3,.7643E-4,0
